     2.11           N: GPS NAV DATA                         RINEX VERSION / TYPE
teqc  2019Feb25                         20230504 17:04:53UTCPGM / RUN BY / DATE
Linux2.6.32-573.12.1.el6.x86_64|x86_64|gcc|Win64-MinGW64|=+ COMMENT
                                                            END OF HEADER
10 21 10  5  0  0  0.0-2.171029336751D-04-7.958078640513D-12 0.000000000000D+00
    8.000000000000D+01-2.653125000000D+01 4.709481883110D-09 5.542571653900D-01
   -1.359730958939D-06 6.993950577453D-03 2.505257725716D-06 5.153673561096D+03
    1.728000000000D+05-1.862645149231D-08 1.501448787220D+00 1.043081283569D-07
    9.702769065335D-01 3.360625000000D+02-2.584798447390D+00-8.523569326590D-09
   -1.142904749427D-10 1.000000000000D+00 2.178000000000D+03 0.000000000000D+00
    2.000000000000D+00 0.000000000000D+00 2.328306436539D-09 8.000000000000D+01
    1.656180000000D+05 4.000000000000D+00
12 21 10  5  0  0  0.0-1.069023273885D-04-5.456968210638D-12 0.000000000000D+00
    1.800000000000D+01-2.478125000000D+01 4.879846122321D-09 1.172640407054D+00
   -1.439824700356D-06 8.256144123152D-03 3.615394234657D-06 5.153663681030D+03
    1.728000000000D+05-1.601874828339D-07-1.565760560464D+00 1.117587089539D-08
    9.715889933700D-01 3.171562500000D+02 1.230380211006D+00-8.501068389335D-09
   -3.000124967247D-10 1.000000000000D+00 2.178000000000D+03 0.000000000000D+00
    2.000000000000D+00 0.000000000000D+00-1.257285475731D-08 1.800000000000D+01
    1.656180000000D+05 4.000000000000D+00
15 21 10  5  0  0  0.0-1.163082197309D-04 2.728484105319D-12 0.000000000000D+00
    7.100000000000D+01-1.082812500000D+02 5.036281209899D-09-2.440148918614D+00
   -5.878508090973D-06 1.375781884417D-02 1.001171767712D-05 5.153691078186D+03
    1.728000000000D+05 1.490116119385D-07 2.431222076924D+00-1.080334186554D-07
    9.296060986482D-01 1.641875000000D+02 1.035148330792D+00-8.149625178886D-09
   -2.000083311498D-10 1.000000000000D+00 2.178000000000D+03 0.000000000000D+00
    2.000000000000D+00 0.000000000000D+00-1.071020960808D-08 7.100000000000D+01
    1.656180000000D+05 4.000000000000D+00
16 21 10  5  0  0  0.0-4.016994498670D-04-6.366462912410D-12 0.000000000000D+00
    5.100000000000D+01-3.637500000000D+01 4.855916554130D-09-6.662974294824D-01
   -1.808628439903D-06 1.226467522793D-02 3.904104232788D-06 5.153758459091D+03
    1.728000000000D+05 8.940696716309D-08-1.547056340901D+00 2.216547727585D-07
    9.716029188872D-01 3.079375000000D+02 6.804942038750D-01-8.488925026373D-09
   -3.932306653499D-10 1.000000000000D+00 2.178000000000D+03 0.000000000000D+00
    2.000000000000D+00 0.000000000000D+00-1.024454832077D-08 5.100000000000D+01
    1.726980000000D+05 4.000000000000D+00
18 21 10  5  0  0  0.0 3.144009970129D-04-4.774847184308D-12 0.000000000000D+00
    1.800000000000D+02 9.387500000000D+01 4.203746531488D-09 2.802427288871D+00
    4.906207323074D-06 1.996643259190D-03 8.657574653625D-06 5.153650232315D+03
    1.728000000000D+05-6.891787052155D-08 4.775869498706D-01 5.587935447693D-09
    9.695682339058D-01 2.175937500000D+02 2.982411845424D+00-7.997118826385D-09
    4.618049503155D-10 1.000000000000D+00 2.178000000000D+03 0.000000000000D+00
    2.000000000000D+00 0.000000000000D+00-8.381903171539D-09 6.920000000000D+02
    1.687680000000D+05 4.000000000000D+00
23 21 10  5  0  0  0.0 4.912912845612D-05-4.774847184308D-12 0.000000000000D+00
    1.940000000000D+02-2.553125000000D+01 4.828415408597D-09 2.069432748478D+00
   -1.406297087669D-06 1.745746121742D-03 2.216547727585D-06 5.153674055099D+03
    1.728000000000D+05 3.725290298462D-08 1.477270370629D+00 1.490116119385D-08
    9.653008126306D-01 3.378437500000D+02 2.706586627648D+00-8.513926067766D-09
   -4.928776731906D-11 1.000000000000D+00 2.178000000000D+03 0.000000000000D+00
    2.000000000000D+00 0.000000000000D+00-8.381903171539D-09 9.620000000000D+02
    1.656180000000D+05 4.000000000000D+00
24 21 10  4 23 59 28.0 2.479637041688D-04 6.934897101019D-12 0.000000000000D+00
    1.100000000000D+02 6.987500000000D+01 5.047353099659D-09 2.865464415740D+00
    3.563240170479D-06 1.169013953768D-02 1.083128154278D-05 5.153714271545D+03
    1.727680000000D+05-5.029141902924D-08-2.758268125030D+00-2.197921276093D-07
    9.351412320659D-01 1.563750000000D+02 7.624125941162D-01-8.088908364073D-09
    5.646663777640D-10 1.000000000000D+00 2.178000000000D+03 0.000000000000D+00
    2.000000000000D+00 0.000000000000D+00 2.793967723846D-09 1.100000000000D+02
    1.656180000000D+05 4.000000000000D+00
25 21 10  4 23 59 44.0 2.191797830164D-04 6.139089236967D-12 0.000000000000D+00
    1.400000000000D+01-1.571875000000D+01 5.235575225580D-09 1.014163677954D+00
   -8.083879947662D-07 9.850990260020D-03 3.164634108543D-06 5.153765928268D+03
    1.727840000000D+05-7.823109626770D-08-1.640919148583D+00 1.285225152969D-07
    9.589872882984D-01 3.184062500000D+02 9.637460393881D-01-8.755364696083D-09
   -2.546534644818D-10 1.000000000000D+00 2.178000000000D+03 0.000000000000D+00
    2.000000000000D+00 0.000000000000D+00 5.587935447693D-09 1.400000000000D+01
    1.656180000000D+05 4.000000000000D+00
26 21 10  5  0  0  0.0 1.414353027940D-04 4.092726157978D-12 0.000000000000D+00
    3.900000000000D+01-1.584375000000D+01 5.643092200298D-09 3.428809923125D-01
   -8.028000593185D-07 6.193665787578D-03 2.460554242134D-06 5.153626363754D+03
    1.728000000000D+05 9.313225746155D-09-1.685456165146D+00 1.676380634308D-08
    9.398861351730D-01 3.163750000000D+02 2.948736151497D-01-8.906085259914D-09
   -2.667968274445D-10 1.000000000000D+00 2.178000000000D+03 0.000000000000D+00
    2.000000000000D+00 0.000000000000D+00 6.984919309616D-09 3.900000000000D+01
    1.663620000000D+05 4.000000000000D+00
29 21 10  5  0  0  0.0-4.215226508677D-04-5.456968210638D-12 0.000000000000D+00
    1.000000000000D+02-3.971875000000D+01 3.795158083568D-09-1.523709347467D+00
   -2.110376954079D-06 1.916877343319D-03 1.255795359612D-05 5.153575578690D+03
    1.728000000000D+05-3.911554813385D-08-5.160610853185D-01 2.607703208923D-08
    9.832240314332D-01 1.496250000000D+02 2.361756419880D+00-7.658176136632D-09
   -4.032310819074D-10 1.000000000000D+00 2.178000000000D+03 0.000000000000D+00
    2.800000000000D+00 0.000000000000D+00-1.024454832077D-08 1.000000000000D+02
    1.656180000000D+05 4.000000000000D+00
29 21 10  4 23 59 44.0-4.215249791741D-04-5.570655048359D-12 0.000000000000D+00
    1.700000000000D+01-3.971875000000D+01 3.795158083568D-09-1.526042284872D+00
   -2.110376954079D-06 1.916877110489D-03 1.255795359612D-05 5.153575578690D+03
    1.727840000000D+05-3.911554813385D-08-5.160609595075D-01 2.607703208923D-08
    9.832240387478D-01 1.496250000000D+02 2.361755545055D+00-7.658176136632D-09
   -4.032310819074D-10 1.000000000000D+00 2.178000000000D+03 0.000000000000D+00
    2.000000000000D+00 0.000000000000D+00-1.024454832077D-08 1.700000000000D+01
    1.681860000000D+05 4.000000000000D+00
31 21 10  5  0  0  0.0-1.432606950402D-04-1.932676241267D-12 0.000000000000D+00
    4.000000000000D+01 8.534375000000D+01 4.805200155874D-09 1.438116645365D+00
    4.703179001808D-06 1.024026970845D-02 9.436160326004D-06 5.153625129700D+03
    1.728000000000D+05-2.235174179077D-08-2.660243163269D+00 1.806765794754D-07
    9.559077213935D-01 1.952187500000D+02 3.044356822024D-01-8.289988168425D-09
    4.146601294017D-10 1.000000000000D+00 2.178000000000D+03 0.000000000000D+00
    2.000000000000D+00 0.000000000000D+00-1.303851604462D-08 4.000000000000D+01
    1.656180000000D+05 4.000000000000D+00
32 21 10  5  0  0  0.0-6.845686584711D-06-3.865352482535D-12 0.000000000000D+00
    8.200000000000D+01-7.506250000000D+01 4.444113686602D-09-8.110028124710D-01
   -3.812834620476D-06 5.108702811413D-03 1.142174005508D-05 5.153733041763D+03
    1.728000000000D+05 5.774199962616D-08 2.544305460124D+00 1.154839992523D-07
    9.578697198272D-01 1.584687500000D+02-2.380006684260D+00-8.025691445120D-09
   -2.432244169875D-10 1.000000000000D+00 2.178000000000D+03 0.000000000000D+00
    2.000000000000D+00 0.000000000000D+00 4.656612873077D-10 8.200000000000D+01
    1.656180000000D+05 4.000000000000D+00
29 21 10  5  1 59 44.0-4.215645603836D-04-5.570655048359D-12 0.000000000000D+00
    1.800000000000D+01-4.465625000000D+01 3.767656938034D-09-4.756952461135D-01
   -2.363696694374D-06 1.917590387166D-03 1.286901533604D-05 5.153576641083D+03
    1.799840000000D+05-5.960464477539D-08-5.161157487154D-01-5.960464477539D-08
    9.832209753973D-01 1.429375000000D+02 2.361644214064D+00-7.651032981949D-09
   -4.685909472653D-10 1.000000000000D+00 2.178000000000D+03 0.000000000000D+00
    2.000000000000D+00 0.000000000000D+00-1.024454832077D-08 1.800000000000D+01
    1.728180000000D+05 4.000000000000D+00
32 21 10  5  2  0  0.0-6.873626261950D-06-3.865352482535D-12 0.000000000000D+00
    8.300000000000D+01-8.375000000000D+01 4.430898850437D-09 2.392106282200D-01
   -4.397705197334D-06 5.107919801958D-03 1.135468482971D-05 5.153731809616D+03
    1.800000000000D+05-4.097819328308D-08 2.544247477366D+00 1.098960638046D-07
    9.578678297370D-01 1.625625000000D+02-2.380076404010D+00-8.054621221590D-09
   -2.571535686212D-10 1.000000000000D+00 2.178000000000D+03 0.000000000000D+00
    2.000000000000D+00 0.000000000000D+00 4.656612873077D-10 8.300000000000D+01
    1.728180000000D+05 4.000000000000D+00
31 21 10  5  2  0  0.0-1.432751305401D-04-1.932676241267D-12 0.000000000000D+00
    5.700000000000D+01 7.687500000000D+01 4.689123892260D-09 2.488197005861D+00
    4.034489393234D-06 1.024007471278D-02 9.803101420403D-06 5.153627593994D+03
    1.800000000000D+05-2.793967723846D-07-2.660303474992D+00-6.146728992462D-08
    9.559122052374D-01 1.887812500000D+02 3.045672131669D-01-8.054621221590D-09
    6.168114069566D-10 1.000000000000D+00 2.178000000000D+03 0.000000000000D+00
    2.000000000000D+00 0.000000000000D+00-1.303851604462D-08 5.700000000000D+01
    1.728180000000D+05 4.000000000000D+00
